{"epoch":1784799577,"count":18318,"objects":[{"id":"43798","name":"ASTROCAST-01","type":"PAYLOAD","l1":"1 43798U 18099AS  26203.88016079  .00046296  00000-0  77039-3 0  9996","l2":"2 43798  97.4364 283.5516 0005245 108.0570 252.1254 15.51893651419967"},{"id":"55109","name":"ASTROCAST-0402","type":"PAYLOAD","l1":"1 55109U 23001DE  26203.71361257  .00016632  00000-0  58938-3 0  9995","l2":"2 55109  97.5574 297.4576 0006596 114.2979 245.8950 15.29160064149964"},{"id":"55110","name":"ASTROCAST-0401","type":"PAYLOAD","l1":"1 55110U 23001DF  26203.73129139  .00021402  00000-0  76628-3 0  9997","l2":"2 55110  97.5557 297.2744 0009333  85.5683 274.6623 15.28747302196634"},{"id":"55111","name":"ASTROCAST-0403","type":"PAYLOAD","l1":"1 55111U 23001DG  26203.53323922  .00028431  00000-0  90283-3 0  9994","l2":"2 55111  97.5616 298.4426 0005275 187.6564 172.4598 15.32606300149972"},{"id":"55112","name":"ASTROCAST-0404","type":"PAYLOAD","l1":"1 55112U 23001DH  26203.22470261  .00007427  00000-0  26723-3 0  9990","l2":"2 55112  97.5663 297.8998 0005634 213.7863 146.3018 15.28895158149887"}]}