{"fetched_at":"2026-07-23T07:05:29.225Z","source":"https://celestrak.org/NORAD/elements/gp.php?NAME=ASTROCAST&FORMAT=JSON","constellation":"astrocast","records":[{"OBJECT_NAME":"ASTROCAST 0.1","OBJECT_ID":"2018-099AS","EPOCH":"2026-07-22T21:07:25.892256","CLASSIFICATION_TYPE":"U","MEAN_MOTION":15.51893651,"ECCENTRICITY":0.00052452,"INCLINATION":97.4364,"RA_OF_ASC_NODE":283.5516,"ARG_OF_PERICENTER":108.057,"MEAN_ANOMALY":252.1254,"EPHEMERIS_TYPE":0,"NORAD_CAT_ID":43798,"ELEMENT_SET_NO":999,"REV_AT_EPOCH":41996,"BSTAR":0.00077039107,"MEAN_MOTION_DOT":0.00046296,"MEAN_MOTION_DDOT":0},{"OBJECT_NAME":"ASTROCAST-0402","OBJECT_ID":"2023-001DE","EPOCH":"2026-07-22T17:07:36.126048","CLASSIFICATION_TYPE":"U","MEAN_MOTION":15.29160064,"ECCENTRICITY":0.00065961,"INCLINATION":97.5574,"RA_OF_ASC_NODE":297.4576,"ARG_OF_PERICENTER":114.2979,"MEAN_ANOMALY":245.895,"EPHEMERIS_TYPE":0,"NORAD_CAT_ID":55109,"ELEMENT_SET_NO":999,"REV_AT_EPOCH":14996,"BSTAR":0.00058938186,"MEAN_MOTION_DOT":0.00016632,"MEAN_MOTION_DDOT":0},{"OBJECT_NAME":"ASTROCAST-0401","OBJECT_ID":"2023-001DF","EPOCH":"2026-07-22T17:33:03.576096","CLASSIFICATION_TYPE":"U","MEAN_MOTION":15.28747302,"ECCENTRICITY":0.00093326,"INCLINATION":97.5557,"RA_OF_ASC_NODE":297.2744,"ARG_OF_PERICENTER":85.5683,"MEAN_ANOMALY":274.6623,"EPHEMERIS_TYPE":0,"NORAD_CAT_ID":55110,"ELEMENT_SET_NO":999,"REV_AT_EPOCH":19663,"BSTAR":0.00076628289,"MEAN_MOTION_DOT":0.00021402,"MEAN_MOTION_DDOT":0},{"OBJECT_NAME":"ASTROCAST-0403","OBJECT_ID":"2023-001DG","EPOCH":"2026-07-22T12:47:51.868608","CLASSIFICATION_TYPE":"U","MEAN_MOTION":15.326063,"ECCENTRICITY":0.00052748,"INCLINATION":97.5616,"RA_OF_ASC_NODE":298.4426,"ARG_OF_PERICENTER":187.6564,"MEAN_ANOMALY":172.4598,"EPHEMERIS_TYPE":0,"NORAD_CAT_ID":55111,"ELEMENT_SET_NO":999,"REV_AT_EPOCH":14997,"BSTAR":0.0009028278,"MEAN_MOTION_DOT":0.00028431,"MEAN_MOTION_DDOT":0},{"OBJECT_NAME":"ASTROCAST-0404","OBJECT_ID":"2023-001DH","EPOCH":"2026-07-22T05:23:34.305504","CLASSIFICATION_TYPE":"U","MEAN_MOTION":15.28895158,"ECCENTRICITY":0.00056338,"INCLINATION":97.5663,"RA_OF_ASC_NODE":297.8998,"ARG_OF_PERICENTER":213.7863,"MEAN_ANOMALY":146.3018,"EPHEMERIS_TYPE":0,"NORAD_CAT_ID":55112,"ELEMENT_SET_NO":999,"REV_AT_EPOCH":14988,"BSTAR":0.00026722541,"MEAN_MOTION_DOT":0.00007427,"MEAN_MOTION_DDOT":0}]}
